import pykep as pk
import numpy as np
import scipy
import os
from matplotlib import pyplot as plt
import seaborn as sns
from sgp4.api import Satrec, SatrecArray
from sgp4.api import WGS72
import networkx as nx
import warnings
warnings.filterwarnings('ignore')


###############################################################
#  MOTHERSHIP TLES
###############################################################
def get_mothership_satellites():
    mothership_tles = [
        [
            "1 39634U 14016A   22349.82483685  .00000056  00000-0  21508-4 0  9992",
            "2 39634  98.1813 354.7934 0001199  83.3324 276.7993 14.59201191463475"
        ],
        [
            "1 26400U 00037A   00208.84261022 +.00077745 +00000-0 +00000-0 0  9995",
            "2 26400 051.5790 297.6001 0012791 171.3037 188.7763 15.69818870002328"
        ],
        [
            "1 36508U 10013A   22349.92638064  .00000262  00000-0  64328-4 0  9992",
            "2 36508  92.0240 328.0627 0004726  21.3451 338.7953 14.51905975672463"
        ],
        [
            "1 40128U 14050A   22349.31276420 -.00000077  00000-0  00000-0 0  9995",
            "2 40128  50.1564 325.0733 1614819 130.5958 244.6527  1.85519534 54574"
        ],
        [
            "1 49810U 21116B   23065.71091236 -.00000083  00000+0  00000+0 0  9998",
            "2 49810  57.2480  13.9949 0001242 301.4399 239.8890  1.70475839  7777"
        ],
        [
            "1 44878U 19092F   22349.75758852  .00015493  00000-0  00000-0 0  9998",
            "2 44878  97.4767 172.6133 0012815  68.6990 291.5614 15.23910904165768"
        ],
        [
            "1 04382U 70034A   22349.88472104  .00001138  00000-0  18306-3 0  9999",
            "2 04382  68.4200 140.9159 1043234  48.2283 320.3286 13.08911192477908"
        ]
    ]
    return [Satrec.twoline2rv(t[0], t[1]) for t in mothership_tles]

